{"type": "FeatureCollection", "features": [{"type": "Feature", "properties": {"name": "Севастополь", "name_latin": "Sevastopol", "note": "Отдельный субъект: полигон должен идти ПЕРВЫМ — полигон «Республика Крым» накрывает его целиком, а region_of() берёт первое совпадение."}, "geometry": {"type": "Polygon", "coordinates": [[[33.53, 44.79], [33.66, 44.78], [33.79, 44.72], [33.86, 44.66], [33.87, 44.57], [33.93, 44.5], [33.85, 44.42], [33.76, 44.38], [33.55, 44.48], [33.36, 44.57], [33.36, 44.62], [33.42, 44.69], [33.53, 44.79]]]}}, {"type": "Feature", "properties": {"name": "Республика Крым", "name_latin": "Crimea"}, "geometry": {"type": "Polygon", "coordinates": [[[33.65, 46.18], [34.55, 45.8], [35.05, 45.75], [35.55, 45.45], [36.62, 45.35], [36.4, 45.02], [35.38, 44.95], [34.97, 44.85], [34.41, 44.66], [34.17, 44.49], [33.74, 44.39], [33.42, 44.55], [33.36, 44.61], [33.36, 45.19], [32.49, 45.35], [33.2, 45.78], [33.65, 46.18]]]}}]}
